H1 CPF  1  DGF 2022 07 09 11  6901 larets     NONE      
H2   304206 5557    27944 2022 07 09 00 00 00 2022 07 16 00 00 00    30 1 1  0 0 0
H5  0.0650
H9
10 0 59775      0.000000  0       5976269.290       3485808.063       1458912.051
10 0 59775     30.000000  0       5957357.485       3419332.929       1676044.810
10 0 59775     60.000000  0       5932124.373       3349497.235       1891470.550
10 0 59775     90.000000  0       5900580.824       3276399.135       2104969.806
10 0 59775    120.000000  0       5862744.567       3200140.046       2316325.075
10 0 59775    150.000000  0       5818640.182       3120824.509       2525321.048
10 0 59775    180.000000  0       5768299.085       3038560.057       2731744.826
10 0 59775    210.000000  0       5711759.509       2953457.067       2935386.144
10 0 59775    240.000000  0       5649066.474       2865628.622       3136037.585
10 0 59775    270.000000  0       5580271.748       2775190.359       3333494.797
10 0 59775    300.000000  0       5505433.801       2682260.324       3527556.699
10 0 59775    330.000000  0       5424617.756       2586958.818       3718025.689
10 0 59775    360.000000  0       5337895.323       2489408.247       3904707.846
10 0 59775    390.000000  0       5245344.728       2389732.964       4087413.127
10 0 59775    420.000000  0       5147050.635       2288059.112       4265955.553
10 0 59775    450.000000  0       5043104.077       2184514.470       4440153.386
10 0 59775    480.000000  0       4933602.370       2079228.294       4609829.324
10 0 59775    510.000000  0       4818649.025       1972331.158       4774810.681
10 0 59775    540.000000  0       4698353.638       1863954.795       4934929.563
10 0 59775    570.000000  0       4572831.783       1754231.935       5090023.044
10 0 59775    600.000000  0       4442204.888       1643296.144       5239933.327
10 0 59775    630.000000  0       4306600.118       1531281.665       5384507.897
10 0 59775    660.000000  0       4166150.240       1418323.250       5523599.678
10 0 59775    690.000000  0       4020993.492       1304556.006       5657067.176
10 0 59775    720.000000  0       3871273.436       1190115.227       5784774.614
10 0 59775    750.000000  0       3717138.814       1075136.238       5906592.070
10 0 59775    780.000000  0       3558743.398        959754.234       6022395.592
10 0 59775    810.000000  0       3396245.833        844104.128       6132067.329
10 0 59775    840.000000  0       3229809.477        728320.392       6235495.633
10 0 59775    870.000000  0       3059602.239        612536.906       6332575.180
10 0 59775    900.000000  0       2885796.408        496886.807       6423207.065
10 0 59775    930.000000  0       2708568.475        381502.335       6507298.910
10 0 59775    960.000000  0       2528098.960        266514.682       6584764.945
10 0 59775    990.000000  0       2344572.221        152053.849       6655526.100
10 0 59775   1020.000000  0       2158176.270         38248.496       6719510.079
10 0 59775   1050.000000  0       1969102.582        -74774.197       6776651.436
10 0 59775   1080.000000  0       1777545.894       -186888.677       6826891.643
10 0 59775   1110.000000  0       1583704.005       -297971.150       6870179.148
10 0 59775   1140.000000  0       1387777.568       -407899.727       6906469.425
10 0 59775   1170.000000  0       1189969.883       -516554.550       6935725.014
10 0 59775   1200.000000  0        990486.688       -623817.925       6957915.560
10 0 59775   1230.000000  0        789535.951       -729574.447       6973017.841
10 0 59775   1260.000000  0        587327.651       -833711.122       6981015.802
10 0 59775   1290.000000  0        384073.558       -936117.493       6981900.566
10 0 59775   1320.000000  0        179987.015      -1036685.754       6975670.448
10 0 59775   1350.000000  0        -24717.287      -1135310.865       6962330.959
10 0 59775   1380.000000  0       -229823.529      -1231890.663       6941894.799
10 0 59775   1410.000000  0       -435114.995      -1326325.970       6914381.852
10 0 59775   1440.000000  0       -640374.299      -1418520.692       6879819.170
10 0 59775   1470.000000  0       -845383.613      -1508381.924       6838240.944
10 0 59775   1500.000000  0      -1049924.896      -1595820.036       6789688.474
10 0 59775   1530.000000  0      -1253780.124      -1680748.772       6734210.139
10 0 59775   1560.000000  0      -1456731.517      -1763085.325       6671861.344
10 0 59775   1590.000000  0      -1658561.775      -1842750.429       6602704.482
10 0 59775   1620.000000  0      -1859054.307      -1919668.425       6526808.876
10 0 59775   1650.000000  0      -2057993.463      -1993767.344       6444250.715
10 0 59775   1680.000000  0      -2255164.764      -2064978.972       6355112.995
10 0 59775   1710.000000  0      -2450355.143      -2133238.919       6259485.445
10 0 59775   1740.000000  0      -2643353.174      -2198486.679       6157464.445
10 0 59775   1770.000000  0      -2833949.316      -2260665.689       6049152.940
10 0 59775   1800.000000  0      -3021936.143      -2319723.385       5934660.339
10 0 59775   1830.000000  0      -3207108.579      -2375611.243       5814102.407
10 0 59775   1860.000000  0      -3389264.125      -2428284.821       5687601.152
10 0 59775   1890.000000  0      -3568203.080      -2477703.798       5555284.708
10 0 59775   1920.000000  0      -3743728.771      -2523832.005       5417287.214
10 0 59775   1950.000000  0      -3915647.775      -2566637.454       5273748.684
10 0 59775   1980.000000  0      -4083770.140      -2606092.357       5124814.866
10 0 59775   2010.000000  0      -4247909.602      -2642173.148       4970637.097
10 0 59775   2040.000000  0      -4407883.801      -2674860.487       4811372.158
10 0 59775   2070.000000  0      -4563514.484      -2704139.268       4647182.110
10 0 59775   2100.000000  0      -4714627.720      -2729998.621       4478234.140
10 0 59775   2130.000000  0      -4861054.097      -2752431.905       4304700.389
10 0 59775   2160.000000  0      -5002628.919      -2771436.701       4126757.783
10 0 59775   2190.000000  0      -5139192.406      -2787014.794       3944587.850
10 0 59775   2220.000000  0      -5270589.877      -2799172.156       3758376.540
10 0 59775   2250.000000  0      -5396671.938      -2807918.920       3568314.036
10 0 59775   2280.000000  0      -5517294.661      -2813269.348       3374594.559
10 0 59775   2310.000000  0      -5632319.758      -2815241.799       3177416.169
10 0 59775   2340.000000  0      -5741614.751      -2813858.687       2976980.560
10 0 59775   2370.000000  0      -5845053.130      -2809146.437       2773492.850
10 0 59775   2400.000000  0      -5942514.512      -2801135.436       2567161.370
10 0 59775   2430.000000  0      -6033884.789      -2789859.980       2358197.442
10 0 59775   2460.000000  0      -6119056.272      -2775358.210       2146815.159
10 0 59775   2490.000000  0      -6197927.829      -2757672.053       1933231.154
10 0 59775   2520.000000  0      -6270405.002      -2736847.144       1717664.369
10 0 59775   2550.000000  0      -6336400.132      -2712932.750       1500335.820
10 0 59775   2580.000000  0      -6395832.459      -2685981.689       1281468.368
10 0 59775   2610.000000  0      -6448628.229      -2656050.249       1061286.483
10 0 59775   2640.000000  0      -6494720.787      -2623198.096        840016.008
10 0 59775   2670.000000  0      -6534050.669      -2587488.186        617883.915
10 0 59775   2700.000000  0      -6566565.675      -2548986.665        395118.065
10 0 59775   2730.000000  0      -6592220.947      -2507762.772        171946.964
10 0 59775   2760.000000  0      -6610979.020      -2463888.728        -51400.488
10 0 59775   2790.000000  0      -6622809.882      -2417439.633       -274695.238
10 0 59775   2820.000000  0      -6627691.005      -2368493.348       -497708.330
10 0 59775   2850.000000  0      -6625607.381      -2317130.383       -720211.145
10 0 59775   2880.000000  0      -6616551.544      -2263433.777       -941975.648
10 0 59775   2910.000000  0      -6600523.584      -2207488.981      -1162774.629
10 0 59775   2940.000000  0      -6577531.148      -2149383.728      -1382381.944
10 0 59775   2970.000000  0      -6547589.443      -2089207.915      -1600572.756
10 0 59775   3000.000000  0      -6510721.217      -2027053.466      -1817123.771
10 0 59775   3030.000000  0      -6466956.739      -1963014.209      -2031813.476
10 0 59775   3060.000000  0      -6416333.768      -1897185.739      -2244422.367
10 0 59775   3090.000000  0      -6358897.514      -1829665.283      -2454733.186
10 0 59775   3120.000000  0      -6294700.587      -1760551.569      -2662531.142
10 0 59775   3150.000000  0      -6223802.945      -1689944.686      -2867604.137
10 0 59775   3180.000000  0      -6146271.823      -1617945.946      -3069742.990
10 0 59775   3210.000000  0      -6062181.663      -1544657.749      -3268741.647
10 0 59775   3240.000000  0      -5971614.027      -1470183.439      -3464397.399
10 0 59775   3270.000000  0      -5874657.513      -1394627.167      -3656511.086
10 0 59775   3300.000000  0      -5771407.650      -1318093.752      -3844887.300
10 0 59775   3330.000000  0      -5661966.802      -1240688.539      -4029334.586
10 0 59775   3360.000000  0      -5546444.044      -1162517.260      -4209665.634
10 0 59775   3390.000000  0      -5424955.050      -1083685.894      -4385697.467
10 0 59775   3420.000000  0      -5297621.963      -1004300.526      -4557251.627
10 0 59775   3450.000000  0      -5164573.254       -924467.211      -4724154.350
10 0 59775   3480.000000  0      -5025943.590       -844291.837      -4886236.735
10 0 59775   3510.000000  0      -4881873.674       -763879.986      -5043334.916
10 0 59775   3540.000000  0      -4732510.100       -683336.805      -5195290.214
10 0 59775   3570.000000  0      -4578005.187       -602766.871      -5341949.298
99
